
inDegrees=no
DataType=double
version=3
OpenSimVersion=4.6-2026-04-25-d8b9379
endheader
time	/jointset/ground_pelvis/pelvis_tilt/value	/jointset/ground_pelvis/pelvis_tx/value	/jointset/ground_pelvis/pelvis_ty/value	/jointset/hip_r/hip_flexion_r/value	/jointset/knee_r/knee_angle_r/value	/jointset/ankle_r/ankle_angle_r/value	/jointset/hip_l/hip_flexion_l/value	/jointset/knee_l/knee_angle_l/value	/jointset/ankle_l/ankle_angle_l/value	/jointset/back/lumbar_extension/value	/jointset/ground_pelvis/pelvis_tilt/speed	/jointset/ground_pelvis/pelvis_tx/speed	/jointset/ground_pelvis/pelvis_ty/speed	/jointset/hip_r/hip_flexion_r/speed	/jointset/knee_r/knee_angle_r/speed	/jointset/ankle_r/ankle_angle_r/speed	/jointset/hip_l/hip_flexion_l/speed	/jointset/knee_l/knee_angle_l/speed	/jointset/ankle_l/ankle_angle_l/speed	/jointset/back/lumbar_extension/speed
2	0	0	0	-0.09921302344310726	-0	0.03063449078416062	-0.0974770001387706	-0.2995501556693359	-0.200061511899636	0	0	0	0	-1.592013544327137	-2.163458479449278e-13	-0.2871966782681554	1.583389154173153	-2.266080189412941	0.4198949938725614	0
2.02	0	0	0	-0.1307411856083756	-0	0.02528261269324672	-0.06534552385905969	-0.3424216773678307	-0.1905178792071704	0	0	0	0	-1.560723785518634	1.578841475689914e-13	-0.2481164087711275	1.629823718014333	-2.072674295545111	0.5577050631186375	0
2.04	0	0	0	-0.1616357265235562	-0	0.0206934713698505	-0.03227573157639384	-0.3886645859174616	-0.1749559150737397	0	0	0	0	-1.528923764050201	-2.67237994261134e-13	-0.2114565325017698	1.677468319421049	-2.743102140143245	1.085039871057129	0
2.06	0	0	0	-0.1919508787623141	-0	0.01679843012575941	0.001762379098334217	-0.4524340664938964	-0.146957100132853	0	0	0	0	-1.503873267702047	5.799435218133631e-13	-0.1786175536509951	1.726424394294577	-3.45524463824088	1.634211193417142	0
2.08	0	0	0	-0.2217213881418265	-0	0.01352548810170894	0.03677928236250756	-0.5210374345039248	-0.1123828448704876	0	0	0	0	-1.47081870414771	-1.329465934760626e-12	-0.1492962429710201	1.775078862810094	-3.366078806508208	1.799265289507189	0
2.1	0	0	0	-0.2509559268036315	-0	0.0108021865769612	0.07275019513488071	-0.5878419773932958	-0.0747304892196657	0	0	0	0	-1.45817571749	3.080145567312967e-12	-0.123617587395922	1.821404116272278	-3.329671440143135	1.971945001683941	0
2.12	0	0	0	-0.2796325288809305	-0	0.008557947360221816	0.1096014076376167	-0.6512604851563935	-0.03535991464677334	0	0	0	0	-1.395588839844663	-7.150326628818067e-12	-0.1013676385937463	1.862610355243246	-2.856630650562082	1.868917338550028	0
2.14	0	0	0	-0.3076960835027266	-0	0.006725843229987384	0.1471991034480044	-0.696913557311588	-0.003377554913306407	0	0	0	0	-1.444086267019229	1.660505568856707e-11	-0.08235933519503429	1.895478537538521	-1.673493764079045	1.296882230127191	0
2.16	0	0	0	-0.3350578268865699	-0	0.005243826730932924	0.1853412166665199	-0.7227097738662005	0.01875553585567641	0	0	0	0	-1.146007702788066	-3.856420921610576e-11	-0.06631333260539507	1.916443050867134	-1.111037582916711	1.029613286540429	0
2.18	0	0	0	-0.3490658503988659	-0	0.004055459929366362	0.2237528878128416	-0.7459373135699899	0.04030778339158699	0	0	0	0	-0.2413464636969314	8.956411095522588e-11	-0.05294427367507128	1.921819589063504	-1.207421878882049	1.120225966507089	0
2.2	0	0	0	-0.3490658503988659	-0	0.003110193672496894	0.2620860028070565	-0.7703182398646969	0.06310884974320113	0	0	0	0	0.07060060264527811	-2.080101978467028e-10	-0.04195525231121439	1.908006700326029	-1.234911483027165	1.162329497017412	0
2.22	0	0	0	-0.3490658503988659	-0	0.002363240726155805	0.2999231439426133	-0.7951914026842565	0.08673592802054046	0	0	0	0	-0.02896303004570851	4.830982048992631e-10	-0.03306866646637999	1.871710528241621	-1.232612854573042	1.189347060174449	0
2.24	0	0	0	-0.3490658503988659	-0	0.001775073683148857	0.3367860634385419	-0.8189079052250552	0.1102803553901613	0	0	0	0	0.01240888743449422	-1.121982945117571e-09	-0.02603984114912755	1.810183695116134	-1.12865709283753	1.159307672595169	0
2.26	0	0	0	-0.3490658503988659	-0	0.001310557248602631	0.3721485276266057	-0.8399467540813709	0.1328969987766749	0	0	0	0	-0.005340295360308884	2.605776082763208e-09	-0.02067695313598288	1.721396797647937	-0.9638702755560663	1.096369615724547	0
2.28	0	0	0	-0.3490658503988659	-0	0.0009376979731249036	0.4054530951087427	-0.8570660619647391	0.1539345001617436	0	0	0	0	0.002299287234394453	-6.05184690361498e-09	-0.01686174091088938	1.604311234285337	-0.7404930241368585	1.003820033300636	0
2.3	0	0	0	-0.3490658503988659	-0	0.0006259668130897352	0.4361311098472446	-0.8693006884003367	0.1729317956239076	0	0	0	0	-0.0009900175650363698	1.405525639976471e-08	-0.0145690463247376	1.458803314218111	-0.4767591956239101	0.8932667785133553	0
2.32	0	0	0	-0.3490658503988659	-0	0.0003441272350521054	0.4636249355862858	-0.8759236793417756	0.1895805169307508	0	0	0	0	0.000426291154472882	-3.264296596200086e-08	-0.01390197355986962	1.286245522067668	-0.1812163900451475	0.7700563826064428	0
2.34	0	0	0	-0.3490658503988659	-0	5.749261914875879e-05	0.4874112555586526	-0.8764018798578102	0.2036862419928798	0	0	0	0	-0.0001835834578106653	7.581243603873372e-08	-0.01510241573706417	1.088391975647874	0.1365970687655092	0.6395889153789581	0
2.36	0	0	0	-0.3490658503988659	-0	-0.0002754474764658717	0.5070241319820296	-0.8703509509232707	0.2151380004676732	0	0	0	0	7.912316440465225e-05	-1.760724030051839e-07	-0.01862183778100308	0.8695302695745424	0.470789182118289	0.5052016723868931	0
2.38	0	0	0	-0.3490658503988659	-0	-0.0007056887947043815	0.5219993517231457	-0.8574883308167532	0.2238872916165964	0	0	0	0	-3.424651025714372e-05	4.089235581903798e-07	-0.02490310090980777	0.6222071686595801	0.8173705053567553	0.3697382171269554	0
2.4	0	0	0	-0.3490658503988659	-0	-0.001295670270039133	0.531754042036898	-0.8375829501155764	0.2299351854727271	0	0	0	0	1.515916446502562e-05	-9.497142856522546e-07	-0.03481621098091533	0.3516959579041607	1.175028352251273	0.2354189894903651	0
2.42	0	0	0	-0.3490658503988659	-0	-0.002131421923925657	0.5360452688429077	-0.8104037722138401	0.2333253384714143	0	0	0	0	-7.487415863589396e-06	2.205686628488337e-06	-0.04968927610749979	0.07733143660824315	1.545222614308369	0.1042881777015161	0
2.44	0	0	0	-0.3490658503988659	-0	-0.003325043125024666	0.5348660814949812	-0.7756739163158147	0.2341407373902761	0	0	0	0	5.454060042486825e-06	-5.122649597589655e-06	-0.07083817022147307	-0.1941870505694522	1.930573617151082	-0.02173987659583411	0
2.46	0	0	0	-0.3490658503988659	-0	-0.005016440020584151	0.5283361519772301	-0.7330420167269461	0.2325022611504496	0	0	0	0	-7.527879889931967e-06	1.189721992586222e-05	-0.0997107086668769	-0.457014866777316	2.336448767685379	-0.1407927033489134	0
2.48	0	0	0	-0.3490658503988659	-0	-0.007374650751901318	0.5166722882133116	-0.6820859701747689	0.2285675522948867	0	0	0	0	1.527056240867297e-05	-2.763098268652888e-05	-0.1377553123798439	-0.7068120560151798	2.762290686376474	-0.2510710642046904	0
2.5	0	0	0	-0.3490658503988659	-0	-0.01059651486008318	0.500179914191097	-0.6223642619983576	0.2225291364396028	0	0	0	0	-3.451269519003573e-05	6.417223765164945e-05	-0.1862657054753881	-0.9391953252316396	3.214429733225113	-0.3508985422859885	0
2.52	0	0	0	-0.3490658503988659	-0	-0.01490110291308119	0.4792459833283599	-0.5535246563480809	0.2146111656254741	0	0	0	0	7.974377298029254e-05	-0.000149038390106723	-0.2461264907716308	-1.150371267183714	3.667101871733491	-0.4388022177047637	0
2.54	0	0	0	-0.3490658503988659	-0	-0.02051870837631421	0.454327898489298	-0.4754682252971462	0.2050645525776269	0	0	0	0	-0.0001850069575764077	0.0003461387876896191	-0.3175233399013424	-1.337152849125216	4.143714752767974	-0.5135919928671759	0
2.56	0	0	0	-0.3490658503988659	-0	-0.02767368975137502	0.4259379530049988	-0.3885495906889807	0.1941605825121873	0	0	0	0	0.0004291513929810543	-0.0008039219291422778	-0.3996246573434944	-1.497254833157057	4.521415767868048	-0.5744307539131878	0
2.580000000000001	0	0	0	-0.3490658503988659	-0	-0.03656117856012356	0.3946244440989067	-0.2937756518022628	0.1821833244160891	0	0	0	0	-0.0009863024197140876	0.00186763607530615	-0.4902970307872747	-1.62938135509414	4.983754651221286	-0.6208834555090412	0
2.600000000000001	0	0	0	-0.3490658503988659	-0	-0.04731864996775514	0.3609510558256376	-0.1929510415883997	0.1694213122514338	0	0	0	0	0.002050308099916894	-0.004350260724389583	-0.5858787098443998	-1.733288286402154	4.980090372371327	-0.6529401135962819	0
2.620000000000001	0	0	0	-0.3490658503988659	-0	-0.05999450070592147	0.3254761134464677	-0.08871577725228852	0.156159034108415	0	0	0	0	0.0008150198433747675	0.01039862923392958	-0.6811337046042726	-1.809745815228585	5.573803383058378	-0.6710126574750475	0
2.640000000000001	0	0	0	-0.3478790028540274	-9.530565405458191e-05	-0.07451692264615777	0.2887331387066437	-0	0.1426687654406383	0	0	0	0	0.1654157472067395	-0.05482818181491219	-0.7692949609362199	-1.860442041595558	2.083194811532472	-0.6759028482181749	0
2.660000000000001	0	0	0	-0.3413682943468562	-0.003898284253211251	-0.09066726956575417	0.2512138809001497	-0	0.1292032259594741	0	0	0	0	0.4845854298824659	-0.3623728579320692	-0.8425674724487807	-1.887839909052395	-0.6786757930085512	-0.6687557851043215	0
2.680000000000001	0	0	0	-0.3288414997870528	-0.01511032061811599	-0.1080625409500943	0.2133547022785753	-0	0.1159894446476739	0	0	0	0	0.7600764663608571	-0.7489505808969101	-0.892318160152168	-1.894977889546011	0.282938253011051	-0.6509796702327511	0
2.700000000000001	0	0	0	-0.3113415943512983	-0.03330508164715844	-0.1261513397569896	0.1755268826832182	-0	0.1032240995485984	0	0	0	0	0.978570734484603	-1.05934999715307	-0.910727488086423	-1.88530073861582	-0.1217164095534208	-0.6241956682807605	0
2.720000000000001	0	0	0	-0.2901110444296495	-0.05703609939256947	-0.1442265891680711	0.1380310974265403	-0	0.09107047299577495	0	0	0	0	1.136216794421935	-1.301831166271994	-0.8896296036722193	-1.862366271348474	0.05307775634938097	-0.590090266813054	0
2.740000000000001	0	0	0	-0.266170215415763	-0.08498008368450483	-0.161456452726611	0.1010960326662689	-0	0.07965704110961708	0	0	0	0	1.251779440062561	-1.485098697530763	-0.8261927895693238	-1.829837347604371	-0.02445741983687764	-0.5504870873861316	0
2.760000000000001	0	0	0	-0.240256735568718	-0.1161781659081849	-0.1769324994087569	0.06488084948662949	-0	0.06907760839520467	0	0	0	0	1.335148956987062	-1.628992799254896	-0.7124728171509724	-1.790846200089206	0.01444939207754978	-0.5069162333370931	0
2.780000000000001	0	0	0	-0.212865851166936	-0.1500037104277046	-0.1897315501555583	0.02948100357638133	-0	0.05939281093094319	0	0	0	0	1.403184633171822	-1.752536346292392	-0.5657136602917598	-1.748999688601999	-0.01979974031285001	-0.4614712161702075	0
